NORAD_CAT_ID,OBJECT_NAME,OBJECT_TYPE,EPOCH,MEAN_MOTION,ECCENTRICITY,INCLINATION,RA_OF_ASC_NODE,ARG_OF_PERICENTER,MEAN_ANOMALY,BSTAR,MEAN_MOTION_DOT,MEAN_MOTION_DDOT,TLE_LINE0,TLE_LINE1,TLE_LINE2,SEMIMAJOR_AXIS,PERIOD,APOGEE,PERIGEE,DECAYED
53639.0,STARLINK-4422,PAYLOAD,2024-07-08 09:11:16,15.08851856,0.0001817,53.217,79.1897,61.5558,298.5617,0.00037864,5.745e-05,0.0,0 STARLINK-4422,1 53639U 22104BD  24190.38282994  .00005745  00000-0  37864-3 0  9998,2 53639  53.2170  79.1897 0001817  61.5558 298.5617 15.08851856104071,6917.844,95.437,540.966,538.452,0.0
53639.0,STARLINK-4422,PAYLOAD,2024-07-08 21:54:21,15.0884709,0.0001421,53.2175,76.8114,97.0582,263.0571,0.00029016,4.334e-05,0.0,0 STARLINK-4422,1 53639U 22104BD  24190.91274844  .00004334  00000-0  29016-3 0  9995,2 53639  53.2175  76.8114 0001421  97.0582 263.0571 15.08847090104154,6917.859,95.437,540.707,538.741,0.0
53639.0,STARLINK-4422,PAYLOAD,2024-07-08 23:29:44,15.08850271,0.0001009,53.2157,76.5182,87.0877,273.023,0.0003157,4.742e-05,0.0,0 STARLINK-4422,1 53639U 22104BD  24190.97898692  .00004742  00000-0  31570-3 0  9995,2 53639  53.2157  76.5182 0001009  87.0877 273.0230 15.08850271103319,6917.849,95.437,540.412,539.016,0.0
53639.0,STARLINK-4422,PAYLOAD,2024-07-09 09:02:03,15.08850056,0.000121,53.2165,74.7342,87.533,272.58,0.00019435,2.807e-05,0.0,0 STARLINK-4422,1 53639U 22104BD  24191.37642394  .00002807  00000-0  19435-3 0  9992,2 53639  53.2165  74.7342 0001210  87.5330 272.5800 15.08850056104228,6917.85,95.437,540.552,538.878,0.0
53639.0,STARLINK-4422,PAYLOAD,2024-07-09 20:09:45,15.08832715,0.0001424,53.2174,72.6486,75.0177,285.0972,-0.00025293,-4.31e-05,0.0,0 STARLINK-4422,1 53639U 22104BD  24191.84011168 -.00004310  00000-0 -25293-3 0  9995,2 53639  53.2174  72.6486 0001424  75.0177 285.0972 15.08832715103446,6917.903,95.438,540.753,538.783,0.0
53639.0,STARLINK-4422,PAYLOAD,2024-07-09 21:45:08,15.08833978,0.000149,53.2171,72.3513,77.0619,283.054,-0.00022369,-3.846e-05,0.0,0 STARLINK-4422,1 53639U 22104BD  24191.90635107 -.00003846  00000-0 -22369-3 0  9991,2 53639  53.2171  72.3513 0001490  77.0619 283.0540 15.08833978104304,6917.899,95.438,540.795,538.733,0.0
53639.0,STARLINK-4422,PAYLOAD,2024-07-10 08:52:50,15.08840097,0.000156,53.2178,70.2697,76.321,283.7956,-9.1231e-05,-1.74e-05,0.0,0 STARLINK-4422,1 53639U 22104BD  24192.37002835 -.00001740  00000-0 -91231-4 0  9995,2 53639  53.2178  70.2697 0001560  76.3210 283.7956 15.08840097103529,6917.88,95.438,540.824,538.666,0.0
53639.0,STARLINK-4422,PAYLOAD,2024-07-10 21:35:55,15.0884603,0.0001404,53.2172,67.8947,92.1159,267.9994,-1.0939e-05,-4.62e-06,0.0,0 STARLINK-4422,1 53639U 22104BD  24192.89994588 -.00000462  00000-0 -10939-4 0  9993,2 53639  53.2172  67.8947 0001404  92.1159 267.9994 15.08846030104450,6917.862,95.437,540.698,538.756,0.0
53639.0,STARLINK-4422,PAYLOAD,2024-07-10 23:11:18,15.08847452,0.0001366,53.2173,67.5964,89.4173,270.6976,3.5673e-05,2.8e-06,0.0,0 STARLINK-4422,1 53639U 22104BD  24192.96618510  .00000280  00000-0  35673-4 0  9997,2 53639  53.2173  67.5964 0001366  89.4173 270.6976 15.08847452104460,6917.858,95.437,540.668,538.778,0.0
53639.0,STARLINK-4422,PAYLOAD,2024-07-11 21:26:42,15.08841721,0.0001232,53.2168,63.4318,97.8614,262.2518,0.00025339,3.747e-05,0.0,0 STARLINK-4422,1 53639U 22104BD  24193.89354886  .00003747  00000-0  25339-3 0  9991,2 53639  53.2168  63.4318 0001232  97.8614 262.2518 15.08841721103750,6917.875,95.437,540.592,538.888,0.0
53639.0,STARLINK-4422,PAYLOAD,2024-07-12 08:34:24,15.08840595,0.0001149,53.2163,61.347,104.3624,255.7495,7.4522e-05,8.98e-06,0.0,0 STARLINK-4422,1 53639U 22104BD  24194.35722710  .00000898  00000-0  74522-4 0  9991,2 53639  53.2163  61.3470 0001149 104.3624 255.7495 15.08840595104674,6917.879,95.438,540.538,538.949,0.0
53639.0,STARLINK-4422,PAYLOAD,2024-07-12 21:17:29,15.08839807,0.0001335,53.2167,58.9701,99.4031,260.7112,6.6598e-05,7.72e-06,0.0,0 STARLINK-4422,1 53639U 22104BD  24194.88714994  .00000772  00000-0  66598-4 0  9999,2 53639  53.2167  58.9701 0001335  99.4031 260.7112 15.08839807103901,6917.881,95.438,540.67,538.822,0.0
53639.0,STARLINK-4422,PAYLOAD,2024-07-13 08:25:12,15.08837346,0.0001729,53.2164,56.8917,83.6996,276.4193,4.6765e-05,4.56e-06,0.0,0 STARLINK-4422,1 53639U 22104BD  24195.35083345  .00000456  00000-0  46765-4 0  9994,2 53639  53.2164  56.8917 0001729  83.6996 276.4193 15.08837346104827,6917.889,95.438,540.95,538.557,0.0
53639.0,STARLINK-4422,PAYLOAD,2024-07-13 21:08:16,15.08842962,0.0001675,53.218,54.5084,101.6875,258.4305,0.0001618,2.288e-05,0.0,0 STARLINK-4422,1 53639U 22104BD  24195.88075168  .00002288  00000-0  16180-3 0  9998,2 53639  53.2180  54.5084 0001675 101.6875 258.4305 15.08842962104906,6917.871,95.437,540.895,538.578,0.0
53639.0,STARLINK-4422,PAYLOAD,2024-07-14 00:19:03,15.08847908,0.0001423,53.2176,53.9156,94.7382,265.3773,0.00026386,3.915e-05,0.0,0 STARLINK-4422,1 53639U 22104BD  24196.01322967  .00003915  00000-0  26386-3 0  9993,2 53639  53.2176  53.9156 0001423  94.7382 265.3773 15.08847908104079,6917.856,95.437,540.706,538.737,0.0
53639.0,STARLINK-4422,PAYLOAD,2024-07-14 20:59:03,15.08853565,0.0001553,53.2182,50.0482,100.6022,259.5145,0.00034764,5.251e-05,0.0,0 STARLINK-4422,1 53639U 22104BD  24196.87434683  .00005251  00000-0  34764-3 0  9990,2 53639  53.2182  50.0482 0001553 100.6022 259.5145 15.08853565105051,6917.839,95.437,540.778,538.63,0.0
53639.0,STARLINK-4422,PAYLOAD,2024-07-15 20:49:50,15.08845199,0.0001406,53.2171,45.5887,83.0325,277.0827,0.00013825,1.913e-05,0.0,0 STARLINK-4422,1 53639U 22104BD  24197.86794986  .00001913  00000-0  13825-3 0  9991,2 53639  53.2171  45.5887 0001406  83.0325 277.0827 15.08845199104352,6917.864,95.437,540.702,538.757,0.0
53639.0,STARLINK-4422,PAYLOAD,2024-07-16 06:22:09,15.08841225,0.0001368,53.2166,43.806,84.7213,275.3936,5.3988e-05,5.71e-06,0.0,0 STARLINK-4422,1 53639U 22104BD  24198.26539094  .00000571  00000-0  53988-4 0  9997,2 53639  53.2166  43.8060 0001368  84.7213 275.3936 15.08841225105260,6917.877,95.437,540.688,538.795,0.0
53639.0,STARLINK-4422,PAYLOAD,2024-07-16 20:40:37,15.08849812,0.000152,53.2178,41.1287,90.5966,269.52,0.00019446,2.809e-05,0.0,0 STARLINK-4422,1 53639U 22104BD  24198.86154527  .00002809  00000-0  19446-3 0  9993,2 53639  53.2178  41.1287 0001520  90.5966 269.5200 15.08849812105354,6917.85,95.437,540.767,538.664,0.0
53639.0,STARLINK-4422,PAYLOAD,2024-07-17 06:12:56,15.08846112,0.0001691,53.2171,39.3459,73.4033,286.7144,0.00017409,2.484e-05,0.0,0 STARLINK-4422,1 53639U 22104BD  24199.25898691  .00002484  00000-0  17409-3 0  9990,2 53639  53.2171  39.3459 0001691  73.4033 286.7144 15.08846112104561,6917.862,95.437,540.897,538.557,0.0
53639.0,STARLINK-4422,PAYLOAD,2024-07-17 20:31:25,15.08834406,0.0001652,53.2171,36.669,66.4625,293.6541,1.2396e-05,-9.1e-07,0.0,0 STARLINK-4422,1 53639U 22104BD  24199.85515634 -.00000091  00000-0  12396-4 0  9993,2 53639  53.2171  36.6690 0001652  66.4625 293.6541 15.08834406104655,6917.897,95.438,540.905,538.62,0.0
53639.0,STARLINK-4422,PAYLOAD,2024-07-18 06:03:44,15.08835681,0.0001656,53.2178,34.8838,81.7785,278.3395,0.0001076,1.425e-05,0.0,0 STARLINK-4422,1 53639U 22104BD  24200.25259732  .00001425  00000-0  10760-3 0  9997,2 53639  53.2178  34.8838 0001656  81.7785 278.3395 15.08835681105561,6917.894,95.438,540.904,538.613,0.0
53639.0,STARLINK-4422,PAYLOAD,2024-07-18 20:22:12,15.08843996,0.000147,53.2175,32.2077,79.5812,280.5346,0.00036907,5.591e-05,0.0,0 STARLINK-4422,1 53639U 22104BD  24200.84875790  .00005591  00000-0  36907-3 0  9999,2 53639  53.2175  32.2077 0001470  79.5812 280.5346 15.08843996105654,6917.868,95.437,540.75,538.716,0.0
53639.0,STARLINK-4422,PAYLOAD,2024-07-19 05:54:31,15.08844659,0.0001297,53.2164,30.4261,92.8193,267.2948,0.00036994,5.605e-05,0.0,0 STARLINK-4422,1 53639U 22104BD  24201.24619784  .00005605  00000-0  36994-3 0  9995,2 53639  53.2164  30.4261 0001297  92.8193 267.2948 15.08844659104863,6917.866,95.437,540.628,538.834,0.0
53639.0,STARLINK-4422,PAYLOAD,2024-07-19 20:12:59,15.08849693,0.0001244,53.2163,27.7496,94.0662,266.0473,0.00034899,5.272e-05,0.0,0 STARLINK-4422,1 53639U 22104BD  24201.84235484  .00005272  00000-0  34899-3 0  9994,2 53639  53.2163  27.7496 0001244  94.0662 266.0473 15.08849693105806,6917.851,95.437,540.576,538.855,0.0
53639.0,STARLINK-4422,PAYLOAD,2024-07-20 12:06:50,15.0884319,0.0001381,53.2151,24.7777,91.4987,268.6163,0.00015169,2.127e-05,0.0,0 STARLINK-4422,1 53639U 22104BD  24202.50475639  .00002127  00000-0  15169-3 0  9991,2 53639  53.2151  24.7777 0001381  91.4987 268.6163 15.08843190105052,6917.871,95.437,540.691,538.78,0.0
53639.0,STARLINK-4422,PAYLOAD,2024-07-20 18:28:23,15.08846559,0.0001438,53.2181,23.5879,86.7945,273.3212,0.00020484,2.974e-05,0.0,0 STARLINK-4422,1 53639U 22104BD  24202.76971748  .00002974  00000-0  20484-3 0  9997,2 53639  53.2181  23.5879 0001438  86.7945 273.3212 15.08846559105947,6917.86,95.437,540.72,538.731,0.0
53639.0,STARLINK-4422,PAYLOAD,2024-07-21 05:36:05,15.08843227,0.0001322,53.217,21.5063,82.8744,277.2398,0.00017246,2.458e-05,0.0,0 STARLINK-4422,1 53639U 22104BD  24203.23339769  .00002458  00000-0  17246-3 0  9990,2 53639  53.2170  21.5063 0001322  82.8744 277.2398 15.08843227106010,6917.871,95.437,540.65,538.821,0.0
53639.0,STARLINK-4422,PAYLOAD,2024-07-21 18:19:10,15.08845652,0.0001333,53.2181,19.1274,85.2583,274.8561,0.00013891,1.924e-05,0.0,0 STARLINK-4422,1 53639U 22104BD  24203.76331721  .00001924  00000-0  13891-3 0  9997,2 53639  53.2181  19.1274 0001333  85.2583 274.8561 15.08845652105242,6917.863,95.437,540.65,538.806,0.0
53639.0,STARLINK-4422,PAYLOAD,2024-07-22 21:20:43,15.08845298,0.0001349,53.2183,14.0719,80.9138,279.2006,0.00016512,2.341e-05,0.0,0 STARLINK-4422,1 53639U 22104BD  24204.88939695  .00002341  00000-0  16512-3 0  9992,2 53639  53.2183  14.0719 0001349  80.9138 279.2006 15.08845298106269,6917.864,95.437,540.662,538.796,0.0
